[{"OBJECT_NAME":"OBJECT D","OBJECT_ID":"2024-085D","EPOCH":"2026-03-09T22:53:13.410816","MEAN_MOTION":15.33413141,"ECCENTRICITY":0.00152451,"INCLINATION":97.3312,"RA_OF_ASC_NODE":145.3953,"ARG_OF_PERICENTER":54.9672,"MEAN_ANOMALY":305.2998,"EPHEMERIS_TYPE":0,"CLASSIFICATION_TYPE":"U","NORAD_CAT_ID":59680,"ELEMENT_SET_NO":999,"REV_AT_EPOCH":10244,"BSTAR":0.00049264705,"MEAN_MOTION_DOT":0.00015903,"MEAN_MOTION_DDOT":0},{"OBJECT_NAME":"STARLINK-34665","OBJECT_ID":"2025-167M","EPOCH":"2026-03-09T06:45:12.102912","MEAN_MOTION":15.30202424,"ECCENTRICITY":0.00010625,"INCLINATION":53.1613,"RA_OF_ASC_NODE":28.8152,"ARG_OF_PERICENTER":70.3211,"MEAN_ANOMALY":289.7905,"EPHEMERIS_TYPE":0,"CLASSIFICATION_TYPE":"U","NORAD_CAT_ID":65089,"ELEMENT_SET_NO":999,"REV_AT_EPOCH":3341,"BSTAR":0.0004399694,"MEAN_MOTION_DOT":0.00012695,"MEAN_MOTION_DDOT":0}]
